0 COSMOS 1275 DEB
1 27734U 81053MV  13282.74464500  .00001698  00000-0  13595-2 0  3865
2 27734 083.1114 285.6494 0104942 046.5296 077.9739 13.87706216910916
0 COSMOS 1275 DEB
1 27734U 81053MV  13285.97025471  .00001903  00000-0  15252-2 0  3875
2 27734 083.1108 283.2652 0104833 037.3680 352.2729 13.87718080911352
0 COSMOS 1275 DEB
1 27734U 81053MV  13288.44719422  .00002721  00000-0  21868-2 0  3886
2 27734 083.1112 281.4342 0104669 030.3302 126.5253 13.87730131911708
0 COSMOS 1275 DEB
1 27734U 81053MV  13292.41171856  .00002986  00000-0  24004-2 0  3890
2 27734 083.1119 278.5047 0104585 019.0166 132.7220 13.87748972912259
0 COSMOS 1275 DEB
1 27734U 81053MV  13294.43173818  .00003484  00000-0  28025-2 0  3907
2 27734 083.1121 277.0113 0104391 013.2814 144.5373 13.87760845912535
